NORAD_CAT_ID,OBJECT_NAME,OBJECT_TYPE,EPOCH,MEAN_MOTION,ECCENTRICITY,INCLINATION,RA_OF_ASC_NODE,ARG_OF_PERICENTER,MEAN_ANOMALY,BSTAR,MEAN_MOTION_DOT,MEAN_MOTION_DDOT,TLE_LINE0,TLE_LINE1,TLE_LINE2,SEMIMAJOR_AXIS,PERIOD,APOGEE,PERIGEE,DECAYED
49420.0,STARLINK-3110,PAYLOAD,2022-01-26 14:00:01,15.09744201,0.000198,53.2173,136.82399999999998,33.2784,337.4644,-0.043619,-0.00666086,0.0,0 STARLINK-3110,1 49420U 21104N   22026.58334491 -.00666086  00000-0 -43619-1 0  9994,2 49420  53.2173 136.8240 0001980  33.2784 337.4644 15.09744201  3637,6915.118,95.38,538.352,535.614,0.0
49420.0,STARLINK-3110,PAYLOAD,2022-01-26 22:00:00,15.09209321,0.0001676999999999,53.2172,135.3249,44.8111,338.3427,-0.031829,-0.00483636,0.0,0 STARLINK-3110,1 49420U 21104N   22026.91667824 -.00483636  00000-0 -31829-1 0  9998,2 49420  53.2172 135.3249 0001677  44.8111 338.3427 15.09209321 12867,6916.752,95.414,539.7769999999998,537.457,0.0
49420.0,STARLINK-3110,PAYLOAD,2022-01-27 04:00:00,15.08845613,0.0001877,53.2173,134.2008,40.7929,261.2861,-0.00090846,-0.0001472,0.0,0 STARLINK-3110,1 49420U 21104N   22027.16667824 -.00014720  00000-0 -90846-3 0  9996,2 49420  53.2173 134.2008 0001877  40.7929 261.2861 15.08845613 12891,6917.863,95.437,541.0269999999998,538.43,0.0
49420.0,STARLINK-3110,PAYLOAD,2022-01-27 13:48:04,15.0971474,0.0001599,53.2144,132.3795,57.5854,302.5293,-0.0092981,-0.00148757,0.0,0 STARLINK-3110,1 49420U 21104N   22027.57504941 -.00148757  00000-0 -92981-2 0  9990,2 49420  53.2144 132.3795 0001599  57.5854 302.5293 15.09714740 11855,6915.208000000001,95.382,538.179,535.967,0.0
49420.0,STARLINK-3110,PAYLOAD,2022-01-27 22:00:00,15.08877053,0.0001619,53.2134,130.8424,22.1411,36.1468,-0.0019767,-0.00031642,0.0,0 STARLINK-3110,1 49420U 21104N   22027.91667824 -.00031642  00000-0 -19767-2 0  9993,2 49420  53.2134 130.8424 0001619  22.1411  36.1468 15.08877053 13016,6917.767,95.435,540.752,538.512,0.0
49420.0,STARLINK-3110,PAYLOAD,2022-01-28 10:00:00,15.08874842,0.0001573,53.2138,128.5976,27.7356,228.0026,-0.0028088,-0.00044755,0.0,0 STARLINK-3110,1 49420U 21104N   22028.41667824 -.00044755  00000-0 -28088-2 0  9994,2 49420  53.2138 128.5976 0001573  27.7356 228.0026 15.08874842 13086,6917.774,95.435,540.727,538.5509999999998,0.0
49420.0,STARLINK-3110,PAYLOAD,2022-01-28 14:00:01,15.0884839,0.0001744,53.2137,127.8501,27.7812,53.7722,-0.00028217,-4.777e-05,0.0,0 STARLINK-3110,1 49420U 21104N   22028.58334491 -.00004777  00000-0 -28217-3 0  9998,2 49420  53.2137 127.8501 0001744  27.7812  53.7722 15.08848390  3611,6917.855,95.437,540.9259999999998,538.513,0.0
49420.0,STARLINK-3110,PAYLOAD,2022-01-28 22:00:00,15.08872252,0.0001713,53.2135,126.3529,28.5548,64.6001,-0.0045578,-0.00072164,0.0,0 STARLINK-3110,1 49420U 21104N   22028.91667824 -.00072164  00000-0 -45578-2 0  9997,2 49420  53.2135 126.3529 0001713  28.5548  64.6001 15.08872252  3596,6917.781999999997,95.436,540.832,538.462,0.0
49420.0,STARLINK-3110,PAYLOAD,2022-01-29 06:00:00,15.08825368,0.0001605,53.2137,124.8556,35.1029,69.6543,0.0015382,0.00024267,0.0,0 STARLINK-3110,1 49420U 21104N   22029.25001157  .00024267  00000-0  15382-2 0  9995,2 49420  53.2137 124.8556 0001605  35.1029  69.6543 15.08825368 13211,6917.925,95.438,540.9,538.68,0.0
49420.0,STARLINK-3110,PAYLOAD,2022-01-29 14:00:01,15.08835726,0.0001846,53.2137,123.3611,31.9402,84.4069,-0.00036266,-6.055e-05,0.0,0 STARLINK-3110,1 49420U 21104N   22029.58334491 -.00006055  00000-0 -36266-3 0  9993,2 49420  53.2137 123.3611 0001846  31.9402  84.4069 15.08835726  3624,6917.893,95.438,541.035,538.481,0.0
49420.0,STARLINK-3110,PAYLOAD,2022-01-29 22:00:00,15.08848358,0.000181,53.2134,121.8638,33.3635,94.5738,-0.0035033,-0.00055626,0.0,0 STARLINK-3110,1 49420U 21104N   22029.91667824 -.00055626  00000-0 -35033-2 0  9997,2 49420  53.2134 121.8638 0001810  33.3635  94.5738 15.08848358 13315,6917.855,95.437,540.972,538.4680000000002,0.0
49420.0,STARLINK-3110,PAYLOAD,2022-01-30 06:00:00,15.08822858,0.0001744,53.2137,120.3667,39.5441,99.9781,0.0012265,0.00019277,0.0,0 STARLINK-3110,1 49420U 21104N   22030.25001157  .00019277  00000-0  12265-2 0  9999,2 49420  53.2137 120.3667 0001744  39.5441  99.9781 15.08822858 13362,6917.933000000001,95.439,541.004,538.591,0.0
49420.0,STARLINK-3110,PAYLOAD,2022-01-30 14:00:01,15.0882172,0.0001964,53.2136,118.8722,34.7497,116.3567,0.00096649,0.0001512,0.0,0 STARLINK-3110,1 49420U 21104N   22030.58334491  .00015120  00000-0  96649-3 0  9997,2 49420  53.2136 118.8722 0001964  34.7497 116.3567 15.08821720  3628,6917.936,95.439,541.16,538.443,0.0
49420.0,STARLINK-3110,PAYLOAD,2022-01-30 22:00:00,15.08849807,0.0001896,53.2134,117.3748,35.4925,127.1886,-0.0017303,-0.00027728,0.0,0 STARLINK-3110,1 49420U 21104N   22030.91667824 -.00027728  00000-0 -17303-2 0  9991,2 49420  53.2134 117.3748 0001896  35.4925 127.1886 15.08849807 13469,6917.85,95.437,541.0269999999998,538.404,0.0
49420.0,STARLINK-3110,PAYLOAD,2022-01-31 14:00:01,15.08806885,0.0002141,53.2136,114.3831,37.592,148.33700000000005,0.0015375,0.00024244,0.0,0 STARLINK-3110,1 49420U 21104N   22031.58335648  .00024244  00000-0  15375-2 0  9996,2 49420  53.2136 114.3831 0002141  37.5920 148.3370 15.08806885  3622,6917.982,95.44,541.328,538.365,0.0
49420.0,STARLINK-3110,PAYLOAD,2022-01-31 22:00:01,15.08839576,0.000204,53.2134,112.8854,38.1454,159.3499,-0.0013663,-0.00021967,0.0,0 STARLINK-3110,1 49420U 21104N   22031.91668981 -.00021967  00000-0 -13663-2 0  9991,2 49420  53.2134 112.8854 0002040  38.1454 159.3499 15.08839576 13612,6917.882,95.438,541.158,538.335,0.0
49420.0,STARLINK-3110,PAYLOAD,2022-02-01 14:00:01,15.0883282,0.0002242,53.2136,109.8938,37.4235,183.2652,0.0017598,0.00027825,0.0,0 STARLINK-3110,1 49420U 21104N   22032.58335648  .00027825  00000-0  17598-2 0  9994,2 49420  53.2136 109.8938 0002242  37.4235 183.2652 15.08832820 13719,6917.901999999999,95.438,541.318,538.216,0.0
49420.0,STARLINK-3110,PAYLOAD,2022-02-01 22:00:00,15.08859153,0.0002085,53.2137,108.3959,36.816,195.4099,-0.0030503,-0.00048534,0.0,0 STARLINK-3110,1 49420U 21104N   22032.91667824 -.00048534  00000-0 -30503-2 0  9998,2 49420  53.2137 108.3959 0002085  36.8160 195.4099 15.08859153  3618,6917.821999999999,95.436,541.129,538.244,0.0
49420.0,STARLINK-3110,PAYLOAD,2022-02-02 06:00:00,15.08853168,0.0002018,53.2138,106.8991,39.2185,204.5945,-0.0019857,-0.00031764,0.0,0 STARLINK-3110,1 49420U 21104N   22033.25001157 -.00031764  00000-0 -19857-2 0  9993,2 49420  53.2138 106.8991 0002018  39.2185 204.5945 15.08853168 13813,6917.84,95.437,541.101,538.309,0.0
49420.0,STARLINK-3110,PAYLOAD,2022-02-02 14:00:01,15.08799273,0.0002237,53.2139,105.4043,33.4111,222.0023,0.0020543,0.00032522,0.0,0 STARLINK-3110,1 49420U 21104N   22033.58334491  .00032522  00000-0  20543-2 0  9994,2 49420  53.2139 105.4043 0002237  33.4111 222.0023 15.08799273  3621,6918.005,95.44,541.4169999999998,538.322,0.0
49420.0,STARLINK-3110,PAYLOAD,2022-02-02 22:00:00,15.08828312,0.0002086,53.2139,103.9063,34.3829,232.5927,-0.00076387,-0.00012421,0.0,0 STARLINK-3110,1 49420U 21104N   22033.91667824 -.00012421  00000-0 -76387-3 0  9996,2 49420  53.2139 103.9063 0002086  34.3829 232.5927 15.08828312  3620,6917.916,95.438,541.224,538.3380000000002,0.0
49420.0,STARLINK-3110,PAYLOAD,2022-02-03 06:00:00,15.08838608,0.0002052,53.214,102.4096,37.8864,240.6607,-0.00015005,-2.675e-05,0.0,0 STARLINK-3110,1 49420U 21104N   22034.25001157 -.00002675  00000-0 -15005-3 0  9995,2 49420  53.2140 102.4096 0002052  37.8864 240.6607 15.08838608 13964,6917.885,95.438,541.169,538.33,0.0
49420.0,STARLINK-3110,PAYLOAD,2022-02-03 14:00:01,15.08815326,0.0002302,53.2139,100.9147,34.1128,256.0315,0.0026609,0.00042287,0.0,0 STARLINK-3110,1 49420U 21104N   22034.58334491  .00042287  00000-0  26609-2 0  9993,2 49420  53.2139 100.9147 0002302  34.1128 256.0315 15.08815326  3624,6917.956,95.439,541.413,538.2280000000002,0.0
49420.0,STARLINK-3110,PAYLOAD,2022-02-03 22:00:01,15.08832659,0.0001609,53.2138,99.4168,34.4463,267.238,-0.00019909,-3.455e-05,0.0,0 STARLINK-3110,1 49420U 21104N   22034.91668981 -.00003455  00000-0 -19909-3 0  9996,2 49420  53.2138  99.4168 0001609  34.4463 267.2380 15.08832659 14066,6917.903,95.438,540.881,538.655,0.0
49420.0,STARLINK-3110,PAYLOAD,2022-02-04 14:00:01,15.08835004,0.0001813,53.2138,96.4251,32.9145,291.9836,0.0031049,0.00049467,0.0,0 STARLINK-3110,1 49420U 21104N   22035.58335648  .00049467  00000-0  31049-2 0  9990,2 49420  53.2138  96.4251 0001813  32.9145 291.9836 15.08835004 14161,6917.896,95.438,541.015,538.506,0.0
49420.0,STARLINK-3110,PAYLOAD,2022-02-04 22:00:00,15.08867355,0.0001649,53.2136,94.9269,36.3946,300.0522,-0.00052796,-8.687e-05,0.0,0 STARLINK-3110,1 49420U 21104N   22035.91667824 -.00008687  00000-0 -52796-3 0  9995,2 49420  53.2136  94.9269 0001649  36.3946 300.0522 15.08867355  3600,6917.797,95.436,540.803,538.521,0.0
49420.0,STARLINK-3110,PAYLOAD,2022-02-05 06:00:00,15.08876426,0.0001689,53.2138,93.4305,40.5849,307.4934,-0.0015708,-0.00025225,0.0,0 STARLINK-3110,1 49420U 21104N   22036.25001157 -.00025225  00000-0 -15708-2 0  9992,2 49420  53.2138  93.4305 0001689  40.5849 307.4934 15.08876426 14261,6917.769,95.435,540.802,538.466,0.0
49420.0,STARLINK-3110,PAYLOAD,2022-02-05 14:00:01,15.08856968,0.0001932,53.2134,91.9352,37.794,321.9218,0.00017205,2.452e-05,0.0,0 STARLINK-3110,1 49420U 21104N   22036.58334491  .00002452  00000-0  17205-3 0  9998,2 49420  53.2134  91.9352 0001932  37.7940 321.9218 15.08856968  3570,6917.829000000002,95.436,541.03,538.357,0.0
49420.0,STARLINK-3110,PAYLOAD,2022-02-06 06:00:00,15.088536800000002,0.000189,53.2134,88.9409,46.3778,336.5502,-0.0026832,-0.00042755,0.0,0 STARLINK-3110,1 49420U 21104N   22037.25001157 -.00042755  00000-0 -26832-2 0  9990,2 49420  53.2134  88.9409 0001890  46.3778 336.5502 15.08853680 14429,6917.839,95.437,541.011,538.396,0.0
